[
  {
    "COMMENT": "GENERATED VIA SPACETRACK.ORG API",
    "ORIGINATOR": "18 SPCS",
    "NORAD_CAT_ID": "20436",
    "OBJECT_NAME": "SPOT 2",
    "OBJECT_TYPE": "PAYLOAD",
    "CLASSIFICATION_TYPE": "U",
    "INTLDES": "90005A",
    "EPOCH": "2023-08-21 03:27:58",
    "EPOCH_MICROSECONDS": "115232",
    "MEAN_MOTION": "14.68343669",
    "ECCENTRICITY": "0.0141954",
    "INCLINATION": "98.6589",
    "RA_OF_ASC_NODE": "308.2464",
    "ARG_OF_PERICENTER": "81.2477",
    "MEAN_ANOMALY": "280.4774",
    "EPHEMERIS_TYPE": "0",
    "ELEMENT_SET_NO": "999",
    "REV_AT_EPOCH": "76372",
    "BSTAR": "0.00028623",
    "MEAN_MOTION_DOT": "0.00001864",
    "MEAN_MOTION_DDOT": "0",
    "FILE": "3985966",
    "TLE_LINE0": "0 SPOT 2",
    "TLE_LINE1": "1 20436U 90005A   23233.14442263  .00001864  00000-0  28623-3 0  9991",
    "TLE_LINE2": "2 20436  98.6589 308.2464 0141954  81.2477 280.4774 14.68343669763729",
    "OBJECT_ID": "1990-005A",
    "OBJECT_NUMBER": "20436",
    "SEMIMAJOR_AXIS": "7044.498",
    "PERIOD": "98.070",
    "APOGEE": "766.362",
    "PERIGEE": "566.363",
    "DECAYED": "0"
  },
  {
    "COMMENT": "GENERATED VIA SPACETRACK.ORG API",
    "ORIGINATOR": "18 SPCS",
    "NORAD_CAT_ID": "20436",
    "OBJECT_NAME": "SPOT 2",
    "OBJECT_TYPE": "PAYLOAD",
    "CLASSIFICATION_TYPE": "U",
    "INTLDES": "90005A",
    "EPOCH": "2023-08-22 03:59:52",
    "EPOCH_MICROSECONDS": "516320",
    "MEAN_MOTION": "14.6834814",
    "ECCENTRICITY": "0.0141919",
    "INCLINATION": "98.6588",
    "RA_OF_ASC_NODE": "309.3281",
    "ARG_OF_PERICENTER": "78.0856",
    "MEAN_ANOMALY": "283.6219",
    "EPHEMERIS_TYPE": "0",
    "ELEMENT_SET_NO": "999",
    "REV_AT_EPOCH": "76387",
    "BSTAR": "0.00029523",
    "MEAN_MOTION_DOT": "0.00001925",
    "MEAN_MOTION_DDOT": "0",
    "FILE": "3986803",
    "TLE_LINE0": "0 SPOT 2",
    "TLE_LINE1": "1 20436U 90005A   23234.16658005  .00001925  00000-0  29523-3 0  9995",
    "TLE_LINE2": "2 20436  98.6588 309.3281 0141919  78.0856 283.6219 14.68348140763877",
    "OBJECT_ID": "1990-005A",
    "OBJECT_NUMBER": "20436",
    "SEMIMAJOR_AXIS": "7044.483",
    "PERIOD": "98.069",
    "APOGEE": "766.323",
    "PERIGEE": "566.374",
    "DECAYED": "0"
  },
  {
    "COMMENT": "GENERATED VIA SPACETRACK.ORG API",
    "ORIGINATOR": "18 SPCS",
    "NORAD_CAT_ID": "20436",
    "OBJECT_NAME": "SPOT 2",
    "OBJECT_TYPE": "PAYLOAD",
    "CLASSIFICATION_TYPE": "U",
    "INTLDES": "90005A",
    "EPOCH": "2023-08-23 04:31:46",
    "EPOCH_MICROSECONDS": "640928",
    "MEAN_MOTION": "14.68351523",
    "ECCENTRICITY": "0.0141879",
    "INCLINATION": "98.6586",
    "RA_OF_ASC_NODE": "310.4097",
    "ARG_OF_PERICENTER": "74.9181",
    "MEAN_ANOMALY": "286.767",
    "EPHEMERIS_TYPE": "0",
    "ELEMENT_SET_NO": "999",
    "REV_AT_EPOCH": "76402",
    "BSTAR": "0.00027215",
    "MEAN_MOTION_DOT": "0.00001769",
    "MEAN_MOTION_DDOT": "0",
    "FILE": "3987571",
    "TLE_LINE0": "0 SPOT 2",
    "TLE_LINE1": "1 20436U 90005A   23235.18873427  .00001769  00000-0  27215-3 0  9997",
    "TLE_LINE2": "2 20436  98.6586 310.4097 0141879  74.9181 286.7670 14.68351523764026",
    "OBJECT_ID": "1990-005A",
    "OBJECT_NUMBER": "20436",
    "SEMIMAJOR_AXIS": "7044.473",
    "PERIOD": "98.069",
    "APOGEE": "766.284",
    "PERIGEE": "566.391",
    "DECAYED": "0"
  },
  {
    "COMMENT": "GENERATED VIA SPACETRACK.ORG API",
    "ORIGINATOR": "18 SPCS",
    "NORAD_CAT_ID": "20436",
    "OBJECT_NAME": "SPOT 2",
    "OBJECT_TYPE": "PAYLOAD",
    "CLASSIFICATION_TYPE": "U",
    "INTLDES": "90005A",
    "EPOCH": "2023-08-24 14:52:25",
    "EPOCH_MICROSECONDS": "937760",
    "MEAN_MOTION": "14.68356391",
    "ECCENTRICITY": "0.0141849",
    "INCLINATION": "98.6589",
    "RA_OF_ASC_NODE": "311.924",
    "ARG_OF_PERICENTER": "70.474",
    "MEAN_ANOMALY": "291.1721",
    "EPHEMERIS_TYPE": "0",
    "ELEMENT_SET_NO": "999",
    "REV_AT_EPOCH": "76421",
    "BSTAR": "0.00026721",
    "MEAN_MOTION_DOT": "0.00001736",
    "MEAN_MOTION_DDOT": "0",
    "FILE": "3988199",
    "TLE_LINE0": "0 SPOT 2",
    "TLE_LINE1": "1 20436U 90005A   23236.61974465  .00001736  00000-0  26721-3 0  9995",
    "TLE_LINE2": "2 20436  98.6589 311.9240 0141849  70.4740 291.1721 14.68356391764210",
    "OBJECT_ID": "1990-005A",
    "OBJECT_NUMBER": "20436",
    "SEMIMAJOR_AXIS": "7044.457",
    "PERIOD": "98.069",
    "APOGEE": "766.247",
    "PERIGEE": "566.397",
    "DECAYED": "0"
  },
  {
    "COMMENT": "GENERATED VIA SPACETRACK.ORG API",
    "ORIGINATOR": "18 SPCS",
    "NORAD_CAT_ID": "20436",
    "OBJECT_NAME": "SPOT 2",
    "OBJECT_TYPE": "PAYLOAD",
    "CLASSIFICATION_TYPE": "U",
    "INTLDES": "90005A",
    "EPOCH": "2023-08-25 03:57:26",
    "EPOCH_MICROSECONDS": "453664",
    "MEAN_MOTION": "14.68358127",
    "ECCENTRICITY": "0.0141826",
    "INCLINATION": "98.6588",
    "RA_OF_ASC_NODE": "312.5009",
    "ARG_OF_PERICENTER": "68.7827",
    "MEAN_ANOMALY": "292.8459",
    "EPHEMERIS_TYPE": "0",
    "ELEMENT_SET_NO": "999",
    "REV_AT_EPOCH": "76429",
    "BSTAR": "0.00025849",
    "MEAN_MOTION_DOT": "0.00001677",
    "MEAN_MOTION_DDOT": "0",
    "FILE": "3988765",
    "TLE_LINE0": "0 SPOT 2",
    "TLE_LINE1": "1 20436U 90005A   23237.16488951  .00001677  00000-0  25849-3 0  9990",
    "TLE_LINE2": "2 20436  98.6588 312.5009 0141826  68.7827 292.8459 14.68358127764293",
    "OBJECT_ID": "1990-005A",
    "OBJECT_NUMBER": "20436",
    "SEMIMAJOR_AXIS": "7044.451",
    "PERIOD": "98.069",
    "APOGEE": "766.225",
    "PERIGEE": "566.408",
    "DECAYED": "0"
  },
  {
    "COMMENT": "GENERATED VIA SPACETRACK.ORG API",
    "ORIGINATOR": "18 SPCS",
    "NORAD_CAT_ID": "20436",
    "OBJECT_NAME": "SPOT 2",
    "OBJECT_TYPE": "PAYLOAD",
    "CLASSIFICATION_TYPE": "U",
    "INTLDES": "90005A",
    "EPOCH": "2023-08-25 17:02:26",
    "EPOCH_MICROSECONDS": "921184",
    "MEAN_MOTION": "14.68359797",
    "ECCENTRICITY": "0.0141806",
    "INCLINATION": "98.6588",
    "RA_OF_ASC_NODE": "313.078",
    "ARG_OF_PERICENTER": "67.0978",
    "MEAN_ANOMALY": "294.5123",
    "EPHEMERIS_TYPE": "0",
    "ELEMENT_SET_NO": "999",
    "REV_AT_EPOCH": "76439",
    "BSTAR": "0.00025141",
    "MEAN_MOTION_DOT": "0.00001629",
    "MEAN_MOTION_DDOT": "0",
    "FILE": "3988967",
    "TLE_LINE0": "0 SPOT 2",
    "TLE_LINE1": "1 20436U 90005A   23237.71003381  .00001629  00000-0  25141-3 0  9993",
    "TLE_LINE2": "2 20436  98.6588 313.0780 0141806  67.0978 294.5123 14.68359797764394",
    "OBJECT_ID": "1990-005A",
    "OBJECT_NUMBER": "20436",
    "SEMIMAJOR_AXIS": "7044.446",
    "PERIOD": "98.069",
    "APOGEE": "766.206",
    "PERIGEE": "566.417",
    "DECAYED": "0"
  },
  {
    "COMMENT": "GENERATED VIA SPACETRACK.ORG API",
    "ORIGINATOR": "18 SPCS",
    "NORAD_CAT_ID": "20436",
    "OBJECT_NAME": "SPOT 2",
    "OBJECT_TYPE": "PAYLOAD",
    "CLASSIFICATION_TYPE": "U",
    "INTLDES": "90005A",
    "EPOCH": "2023-08-25 20:18:42",
    "EPOCH_MICROSECONDS": "4800",
    "MEAN_MOTION": "14.68360532",
    "ECCENTRICITY": "0.0141799",
    "INCLINATION": "98.6588",
    "RA_OF_ASC_NODE": "313.2221",
    "ARG_OF_PERICENTER": "66.6721",
    "MEAN_ANOMALY": "294.9331",
    "EPHEMERIS_TYPE": "0",
    "ELEMENT_SET_NO": "999",
    "REV_AT_EPOCH": "76439",
    "BSTAR": "0.00025714",
    "MEAN_MOTION_DOT": "0.00001668",
    "MEAN_MOTION_DDOT": "0",
    "FILE": "3989051",
    "TLE_LINE0": "0 SPOT 2",
    "TLE_LINE1": "1 20436U 90005A   23237.84631950  .00001668  00000-0  25714-3 0  9995",
    "TLE_LINE2": "2 20436  98.6588 313.2221 0141799  66.6721 294.9331 14.68360532764392",
    "OBJECT_ID": "1990-005A",
    "OBJECT_NUMBER": "20436",
    "SEMIMAJOR_AXIS": "7044.444",
    "PERIOD": "98.069",
    "APOGEE": "766.198",
    "PERIGEE": "566.419",
    "DECAYED": "0"
  },
  {
    "COMMENT": "GENERATED VIA SPACETRACK.ORG API",
    "ORIGINATOR": "18 SPCS",
    "NORAD_CAT_ID": "20436",
    "OBJECT_NAME": "SPOT 2",
    "OBJECT_TYPE": "PAYLOAD",
    "CLASSIFICATION_TYPE": "U",
    "INTLDES": "90005A",
    "EPOCH": "2023-08-26 04:29:19",
    "EPOCH_MICROSECONDS": "738464",
    "MEAN_MOTION": "14.68361686",
    "ECCENTRICITY": "0.0141783",
    "INCLINATION": "98.6587",
    "RA_OF_ASC_NODE": "313.5827",
    "ARG_OF_PERICENTER": "65.615",
    "MEAN_ANOMALY": "295.9776",
    "EPHEMERIS_TYPE": "0",
    "ELEMENT_SET_NO": "999",
    "REV_AT_EPOCH": "76444",
    "BSTAR": "0.00025612",
    "MEAN_MOTION_DOT": "0.00001661",
    "MEAN_MOTION_DDOT": "0",
    "FILE": "3989608",
    "TLE_LINE0": "0 SPOT 2",
    "TLE_LINE1": "1 20436U 90005A   23238.18703401  .00001661  00000-0  25612-3 0  9994",
    "TLE_LINE2": "2 20436  98.6587 313.5827 0141783  65.6150 295.9776 14.68361686764445",
    "OBJECT_ID": "1990-005A",
    "OBJECT_NUMBER": "20436",
    "SEMIMAJOR_AXIS": "7044.440",
    "PERIOD": "98.068",
    "APOGEE": "766.183",
    "PERIGEE": "566.427",
    "DECAYED": "0"
  },
  {
    "COMMENT": "GENERATED VIA SPACETRACK.ORG API",
    "ORIGINATOR": "18 SPCS",
    "NORAD_CAT_ID": "20436",
    "OBJECT_NAME": "SPOT 2",
    "OBJECT_TYPE": "PAYLOAD",
    "CLASSIFICATION_TYPE": "U",
    "INTLDES": "90005A",
    "EPOCH": "2023-08-26 17:34:20",
    "EPOCH_MICROSECONDS": "28864",
    "MEAN_MOTION": "14.68363577",
    "ECCENTRICITY": "0.0141768",
    "INCLINATION": "98.6587",
    "RA_OF_ASC_NODE": "314.1596",
    "ARG_OF_PERICENTER": "63.9246",
    "MEAN_ANOMALY": "297.6471",
    "EPHEMERIS_TYPE": "0",
    "ELEMENT_SET_NO": "999",
    "REV_AT_EPOCH": "76454",
    "BSTAR": "0.00025394",
    "MEAN_MOTION_DOT": "0.00001646",
    "MEAN_MOTION_DDOT": "0",
    "FILE": "3989803",
    "TLE_LINE0": "0 SPOT 2",
    "TLE_LINE1": "1 20436U 90005A   23238.73217626  .00001646  00000-0  25394-3 0  9994",
    "TLE_LINE2": "2 20436  98.6587 314.1596 0141768  63.9246 297.6471 14.68363577764548",
    "OBJECT_ID": "1990-005A",
    "OBJECT_NUMBER": "20436",
    "SEMIMAJOR_AXIS": "7044.434",
    "PERIOD": "98.068",
    "APOGEE": "766.167",
    "PERIGEE": "566.431",
    "DECAYED": "0"
  }
]